{"fetched_at":"2026-07-07T07:58:09.009Z","source":"https://celestrak.org/NORAD/elements/gp.php?GROUP=kuiper&FORMAT=JSON","constellation":"kuiper","records":[{"OBJECT_NAME":"KUIPER-00605","OBJECT_ID":"2026-118X","EPOCH":"2026-07-06T18:00:02.998944","CLASSIFICATION_TYPE":"U","MEAN_MOTION":15.19902096,"ECCENTRICITY":0.0004614,"INCLINATION":51.8785,"RA_OF_ASC_NODE":319.3791,"ARG_OF_PERICENTER":257.4848,"MEAN_ANOMALY":68.4211,"EPHEMERIS_TYPE":0,"NORAD_CAT_ID":69288,"ELEMENT_SET_NO":999,"REV_AT_EPOCH":228,"BSTAR":-0.056517,"MEAN_MOTION_DOT":-0.01136091,"MEAN_MOTION_DDOT":0},{"OBJECT_NAME":"KUIPER-00606","OBJECT_ID":"2026-118Y","EPOCH":"2026-07-06T13:20:28.006080","CLASSIFICATION_TYPE":"U","MEAN_MOTION":15.38176243,"ECCENTRICITY":0.0003505,"INCLINATION":51.869,"RA_OF_ASC_NODE":319.489,"ARG_OF_PERICENTER":230.7098,"MEAN_ANOMALY":129.3579,"EPHEMERIS_TYPE":0,"NORAD_CAT_ID":69289,"ELEMENT_SET_NO":999,"REV_AT_EPOCH":696,"BSTAR":0.00054444,"MEAN_MOTION_DOT":0.00020456,"MEAN_MOTION_DDOT":0},{"OBJECT_NAME":"KUIPER-00607","OBJECT_ID":"2026-118Z","EPOCH":"2026-07-06T15:04:26.270112","CLASSIFICATION_TYPE":"U","MEAN_MOTION":15.37856801,"ECCENTRICITY":0.000489,"INCLINATION":51.8698,"RA_OF_ASC_NODE":319.2181,"ARG_OF_PERICENTER":247.3574,"MEAN_ANOMALY":112.6896,"EPHEMERIS_TYPE":0,"NORAD_CAT_ID":69290,"ELEMENT_SET_NO":999,"REV_AT_EPOCH":697,"BSTAR":0.00056185,"MEAN_MOTION_DOT":0.00020906,"MEAN_MOTION_DDOT":0},{"OBJECT_NAME":"KUIPER-00608","OBJECT_ID":"2026-118AA","EPOCH":"2026-07-06T14:48:06.534720","CLASSIFICATION_TYPE":"U","MEAN_MOTION":15.34075283,"ECCENTRICITY":0.000795,"INCLINATION":51.8619,"RA_OF_ASC_NODE":319.8542,"ARG_OF_PERICENTER":273.8642,"MEAN_ANOMALY":86.1435,"EPHEMERIS_TYPE":0,"NORAD_CAT_ID":69291,"ELEMENT_SET_NO":999,"REV_AT_EPOCH":696,"BSTAR":0.000084768,"MEAN_MOTION_DOT":0.0000246,"MEAN_MOTION_DDOT":0},{"OBJECT_NAME":"KUIPER-00610","OBJECT_ID":"2026-118AB","EPOCH":"2026-07-06T16:08:30.113664","CLASSIFICATION_TYPE":"U","MEAN_MOTION":15.38621497,"ECCENTRICITY":0.0001911,"INCLINATION":51.8725,"RA_OF_ASC_NODE":318.778,"ARG_OF_PERICENTER":279.5623,"MEAN_ANOMALY":80.5148,"EPHEMERIS_TYPE":0,"NORAD_CAT_ID":69292,"ELEMENT_SET_NO":999,"REV_AT_EPOCH":698,"BSTAR":0.00093488,"MEAN_MOTION_DOT":0.00036002,"MEAN_MOTION_DDOT":0},{"OBJECT_NAME":"KUIPER-00613","OBJECT_ID":"2026-118AC","EPOCH":"2026-07-06T18:00:02.998944","CLASSIFICATION_TYPE":"U","MEAN_MOTION":15.25015533,"ECCENTRICITY":0.0008969,"INCLINATION":51.87,"RA_OF_ASC_NODE":319.5915,"ARG_OF_PERICENTER":255.2481,"MEAN_ANOMALY":302.8314,"EPHEMERIS_TYPE":0,"NORAD_CAT_ID":69293,"ELEMENT_SET_NO":999,"REV_AT_EPOCH":405,"BSTAR":-0.084463,"MEAN_MOTION_DOT":-0.01942544,"MEAN_MOTION_DDOT":0},{"OBJECT_NAME":"KUIPER-00618","OBJECT_ID":"2026-118AD","EPOCH":"2026-07-06T14:39:00.426240","CLASSIFICATION_TYPE":"U","MEAN_MOTION":15.37402551,"ECCENTRICITY":0.0000283,"INCLINATION":51.8734,"RA_OF_ASC_NODE":319.1087,"ARG_OF_PERICENTER":278.5833,"MEAN_ANOMALY":81.5122,"EPHEMERIS_TYPE":0,"NORAD_CAT_ID":69294,"ELEMENT_SET_NO":999,"REV_AT_EPOCH":697,"BSTAR":0.00051226,"MEAN_MOTION_DOT":0.00018734,"MEAN_MOTION_DDOT":0},{"OBJECT_NAME":"KUIPER-00620","OBJECT_ID":"2026-118AE","EPOCH":"2026-07-06T16:07:39.720864","CLASSIFICATION_TYPE":"U","MEAN_MOTION":15.38681272,"ECCENTRICITY":0.000032,"INCLINATION":51.873,"RA_OF_ASC_NODE":318.7748,"ARG_OF_PERICENTER":200.9648,"MEAN_ANOMALY":159.1327,"EPHEMERIS_TYPE":0,"NORAD_CAT_ID":69295,"ELEMENT_SET_NO":999,"REV_AT_EPOCH":698,"BSTAR":0.00082426,"MEAN_MOTION_DOT":0.00031739,"MEAN_MOTION_DDOT":0},{"OBJECT_NAME":"KUIPER-00423","OBJECT_ID":"2026-140A","EPOCH":"2026-07-06T13:02:36.773088","CLASSIFICATION_TYPE":"U","MEAN_MOTION":15.38450979,"ECCENTRICITY":0.0013872,"INCLINATION":51.8811,"RA_OF_ASC_NODE":304.9539,"ARG_OF_PERICENTER":238.0416,"MEAN_ANOMALY":121.9223,"EPHEMERIS_TYPE":0,"NORAD_CAT_ID":69592,"ELEMENT_SET_NO":999,"REV_AT_EPOCH":421,"BSTAR":0.00058227,"MEAN_MOTION_DOT":0.00022171,"MEAN_MOTION_DDOT":0},{"OBJECT_NAME":"KUIPER-00428","OBJECT_ID":"2026-140B","EPOCH":"2026-07-06T13:44:45.719232","CLASSIFICATION_TYPE":"U","MEAN_MOTION":15.36805043,"ECCENTRICITY":0.0007641,"INCLINATION":51.8817,"RA_OF_ASC_NODE":305.1435,"ARG_OF_PERICENTER":2.8247,"MEAN_ANOMALY":357.2781,"EPHEMERIS_TYPE":0,"NORAD_CAT_ID":69593,"ELEMENT_SET_NO":999,"REV_AT_EPOCH":421,"BSTAR":0.00051716,"MEAN_MOTION_DOT":0.00018562,"MEAN_MOTION_DDOT":0},{"OBJECT_NAME":"KUIPER-00481","OBJECT_ID":"2026-140C","EPOCH":"2026-07-06T18:00:02.998944","CLASSIFICATION_TYPE":"U","MEAN_MOTION":15.37796884,"ECCENTRICITY":0.0011074,"INCLINATION":51.8784,"RA_OF_ASC_NODE":304.0414,"ARG_OF_PERICENTER":246.5368,"MEAN_ANOMALY":134.6429,"EPHEMERIS_TYPE":0,"NORAD_CAT_ID":69594,"ELEMENT_SET_NO":999,"REV_AT_EPOCH":368,"BSTAR":0.0015897,"MEAN_MOTION_DOT":0.0006016,"MEAN_MOTION_DDOT":0},{"OBJECT_NAME":"KUIPER-00490","OBJECT_ID":"2026-140D","EPOCH":"2026-07-06T18:08:17.111040","CLASSIFICATION_TYPE":"U","MEAN_MOTION":15.37804205,"ECCENTRICITY":0.0006254,"INCLINATION":51.8779,"RA_OF_ASC_NODE":304.1157,"ARG_OF_PERICENTER":308.0647,"MEAN_ANOMALY":51.9775,"EPHEMERIS_TYPE":0,"NORAD_CAT_ID":69595,"ELEMENT_SET_NO":999,"REV_AT_EPOCH":424,"BSTAR":0.00035276,"MEAN_MOTION_DOT":0.00012944,"MEAN_MOTION_DDOT":0},{"OBJECT_NAME":"KUIPER-00493","OBJECT_ID":"2026-140E","EPOCH":"2026-07-06T13:50:08.520000","CLASSIFICATION_TYPE":"U","MEAN_MOTION":15.36531613,"ECCENTRICITY":0.0007671,"INCLINATION":51.8814,"RA_OF_ASC_NODE":305.1675,"ARG_OF_PERICENTER":8.136,"MEAN_ANOMALY":351.9749,"EPHEMERIS_TYPE":0,"NORAD_CAT_ID":69596,"ELEMENT_SET_NO":999,"REV_AT_EPOCH":421,"BSTAR":0.00057355,"MEAN_MOTION_DOT":0.00020451,"MEAN_MOTION_DDOT":0},{"OBJECT_NAME":"KUIPER-00496","OBJECT_ID":"2026-140F","EPOCH":"2026-07-06T12:33:03.192768","CLASSIFICATION_TYPE":"U","MEAN_MOTION":15.34552484,"ECCENTRICITY":0.001023,"INCLINATION":51.8809,"RA_OF_ASC_NODE":305.5497,"ARG_OF_PERICENTER":21.1878,"MEAN_ANOMALY":338.953,"EPHEMERIS_TYPE":0,"NORAD_CAT_ID":69597,"ELEMENT_SET_NO":999,"REV_AT_EPOCH":420,"BSTAR":0.0006012,"MEAN_MOTION_DOT":0.00020134,"MEAN_MOTION_DDOT":0},{"OBJECT_NAME":"KUIPER-00513","OBJECT_ID":"2026-140G","EPOCH":"2026-07-06T16:31:34.149216","CLASSIFICATION_TYPE":"U","MEAN_MOTION":15.38005977,"ECCENTRICITY":0.000702,"INCLINATION":51.8807,"RA_OF_ASC_NODE":304.4245,"ARG_OF_PERICENTER":305.7168,"MEAN_ANOMALY":54.3166,"EPHEMERIS_TYPE":0,"NORAD_CAT_ID":69598,"ELEMENT_SET_NO":999,"REV_AT_EPOCH":423,"BSTAR":0.00051838,"MEAN_MOTION_DOT":0.00019355,"MEAN_MOTION_DDOT":0},{"OBJECT_NAME":"KUIPER-00516","OBJECT_ID":"2026-140H","EPOCH":"2026-07-06T18:12:39.288384","CLASSIFICATION_TYPE":"U","MEAN_MOTION":15.37449858,"ECCENTRICITY":0.0006747,"INCLINATION":51.8787,"RA_OF_ASC_NODE":304.1387,"ARG_OF_PERICENTER":324.1154,"MEAN_ANOMALY":35.9379,"EPHEMERIS_TYPE":0,"NORAD_CAT_ID":69599,"ELEMENT_SET_NO":999,"REV_AT_EPOCH":424,"BSTAR":0.00048957,"MEAN_MOTION_DOT":0.00017922,"MEAN_MOTION_DDOT":0}]}
