KUIPER-00605            
1 69288U 26118X   26187.75003471 -.01136091  00000+0 -56517-1 0  9999
2 69288  51.8785 319.3791 0004614 257.4848  68.4211 15.19902096  2281
KUIPER-00606            
1 69289U 26118Y   26187.55587970  .00020456  00000+0  54444-3 0  9992
2 69289  51.8690 319.4890 0003505 230.7098 129.3579 15.38176243  6968
KUIPER-00607            
1 69290U 26118Z   26187.62808183  .00020906  00000+0  56185-3 0  9998
2 69290  51.8698 319.2181 0004890 247.3574 112.6896 15.37856801  6972
KUIPER-00608            
1 69291U 26118AA  26187.61674230  .00002460  00000+0  84768-4 0  9996
2 69291  51.8619 319.8542 0007950 273.8642  86.1435 15.34075283  6960
KUIPER-00610            
1 69292U 26118AB  26187.67257076  .00036002  00000+0  93488-3 0  9995
2 69292  51.8725 318.7780 0001911 279.5623  80.5148 15.38621497  6983
KUIPER-00613            
1 69293U 26118AC  26187.75003471 -.01942544  00000+0 -84463-1 0  9994
2 69293  51.8700 319.5915 0008969 255.2481 302.8314 15.25015533  4054
KUIPER-00618            
1 69294U 26118AD  26187.61042160  .00018734  00000+0  51226-3 0  9993
2 69294  51.8734 319.1087 0000283 278.5833  81.5122 15.37402551  6972
KUIPER-00620            
1 69295U 26118AE  26187.67198751  .00031739  00000+0  82426-3 0  9994
2 69295  51.8730 318.7748 0000320 200.9648 159.1327 15.38681272  6983
KUIPER-00423            
1 69592U 26140A   26187.54348117  .00022171  00000+0  58227-3 0  9990
2 69592  51.8811 304.9539 0013872 238.0416 121.9223 15.38450979  4213
KUIPER-00428            
1 69593U 26140B   26187.57275138  .00018562  00000+0  51716-3 0  9991
2 69593  51.8817 305.1435 0007641   2.8247 357.2781 15.36805043  4211
KUIPER-00481            
1 69594U 26140C   26187.75003471  .00060160  00000+0  15897-2 0  9991
2 69594  51.8784 304.0414 0011074 246.5368 134.6429 15.37796884  3685
KUIPER-00490            
1 69595U 26140D   26187.75575360  .00012944  00000+0  35276-3 0  9994
2 69595  51.8779 304.1157 0006254 308.0647  51.9775 15.37804205  4248
KUIPER-00493            
1 69596U 26140E   26187.57648750  .00020451  00000+0  57355-3 0  9993
2 69596  51.8814 305.1675 0007671   8.1360 351.9749 15.36531613  4219
KUIPER-00496            
1 69597U 26140F   26187.52295362  .00020134  00000+0  60120-3 0  9998
2 69597  51.8809 305.5497 0010230  21.1878 338.9530 15.34552484  4203
KUIPER-00513            
1 69598U 26140G   26187.68858969  .00019355  00000+0  51838-3 0  9993
2 69598  51.8807 304.4245 0007020 305.7168  54.3166 15.38005977  4238
KUIPER-00516            
1 69599U 26140H   26187.75878806  .00017922  00000+0  48957-3 0  9990
2 69599  51.8787 304.1387 0006747 324.1154  35.9379 15.37449858  4246
